{
  "norad_id": 55778,
  "name": "STARLINK-5816",
  "history": [
    {
      "epoch": "2026-03-28T16:42:07.033536Z",
      "apogee_km": 574.3447355038288,
      "perigee_km": 569.7553879832176,
      "latitude_deg": 6.500762815889279e-05,
      "longitude_deg": 99.74985641577665,
      "height_km": 574.6062805215763,
      "semi_major_axis_km": 6950.1870617435225,
      "eccentricity": 0.00033016,
      "inclination_deg": 70.0012,
      "raan_deg": 176.3918,
      "arg_perigee_deg": 266.7929,
      "mean_anomaly_deg": 93.2853,
      "mean_motion_rev_day": 14.98331885
    },
    {
      "epoch": "2026-03-28T23:06:39.474432Z",
      "apogee_km": 574.4226077769554,
      "perigee_km": 569.7020323987517,
      "latitude_deg": 8.424454269846313e-06,
      "longitude_deg": 2.6788566870717343,
      "height_km": 574.5209645764572,
      "semi_major_axis_km": 6950.199320087853,
      "eccentricity": 0.0003396,
      "inclination_deg": 70.0012,
      "raan_deg": 175.7192,
      "arg_perigee_deg": 269.2542,
      "mean_anomaly_deg": 90.8228,
      "mean_motion_rev_day": 14.98327921
    },
    {
      "epoch": "2026-03-29T23:08:40.367904Z",
      "apogee_km": 574.4551995666106,
      "perigee_km": 569.6609550022995,
      "latitude_deg": 1.8549178699722424e-05,
      "longitude_deg": -1.3370860931348825,
      "height_km": 574.4665844973102,
      "semi_major_axis_km": 6950.195077284455,
      "eccentricity": 0.0003449,
      "inclination_deg": 70.0008,
      "raan_deg": 173.194,
      "arg_perigee_deg": 270.4644,
      "mean_anomaly_deg": 89.612,
      "mean_motion_rev_day": 14.98329293
    },
    {
      "epoch": "2026-03-30T05:33:12.801024Z",
      "apogee_km": 574.452234211456,
      "perigee_km": 569.6703587795009,
      "latitude_deg": -7.692973925489407e-05,
      "longitude_deg": -98.4088670230681,
      "height_km": 574.4867609869503,
      "semi_major_axis_km": 6950.198296495478,
      "eccentricity": 0.00034401,
      "inclination_deg": 70.0007,
      "raan_deg": 172.5206,
      "arg_perigee_deg": 270.0591,
      "mean_anomaly_deg": 90.0173,
      "mean_motion_rev_day": 14.98328252
    },
    {
      "epoch": "2026-03-30T13:33:53.034624Z",
      "apogee_km": 574.4095503402623,
      "perigee_km": 569.7103831671011,
      "latitude_deg": 1.5528432507417045e-05,
      "longitude_deg": 140.25251952205883,
      "height_km": 574.5605252948984,
      "semi_major_axis_km": 6950.196966753681,
      "eccentricity": 0.00033806,
      "inclination_deg": 70.0009,
      "raan_deg": 171.6786,
      "arg_perigee_deg": 268.2277,
      "mean_anomaly_deg": 91.8495,
      "mean_motion_rev_day": 14.98328682
    },
    {
      "epoch": "2026-03-30T15:10:01.067520Z",
      "apogee_km": 574.4329323439952,
      "perigee_km": 569.6827521771047,
      "latitude_deg": 3.698113512434452e-05,
      "longitude_deg": 115.98515566060239,
      "height_km": 574.5547445107607,
      "semi_major_axis_km": 6950.19484226055,
      "eccentricity": 0.00034173,
      "inclination_deg": 70.0008,
      "raan_deg": 171.5105,
      "arg_perigee_deg": 268.3356,
      "mean_anomaly_deg": 91.7412,
      "mean_motion_rev_day": 14.98329369
    },
    {
      "epoch": "2026-03-31T11:59:45.407040Z",
      "apogee_km": 574.4402714534817,
      "perigee_km": 569.6474267399444,
      "latitude_deg": 8.306994343177547e-06,
      "longitude_deg": 160.5069824644849,
      "height_km": 574.4769340619262,
      "semi_major_axis_km": 6950.180849096713,
      "eccentricity": 0.0003448,
      "inclination_deg": 70.0005,
      "raan_deg": 169.3225,
      "arg_perigee_deg": 269.8766,
      "mean_anomaly_deg": 90.1998,
      "mean_motion_rev_day": 14.98333894
    },
    {
      "epoch": "2026-04-01T12:01:46.972704Z",
      "apogee_km": 574.5170138973644,
      "perigee_km": 569.617120030156,
      "latitude_deg": -7.703568557582568e-06,
      "longitude_deg": 156.48892260029956,
      "height_km": 574.498158879901,
      "semi_major_axis_km": 6950.20406696376,
      "eccentricity": 0.0003525,
      "inclination_deg": 70.0002,
      "raan_deg": 166.798,
      "arg_perigee_deg": 269.9269,
      "mean_anomaly_deg": 90.1486,
      "mean_motion_rev_day": 14.98326386
    },
    {
      "epoch": "2026-04-02T15:16:02.340480Z",
      "apogee_km": 574.8759252379596,
      "perigee_km": 569.1255202888997,
      "latitude_deg": 2.931654989430294e-06,
      "longitude_deg": 103.94398653650424,
      "height_km": 574.4274273514332,
      "semi_major_axis_km": 6950.137722763429,
      "eccentricity": 0.00041369,
      "inclination_deg": 69.9997,
      "raan_deg": 163.9357,
      "arg_perigee_deg": 270.0355,
      "mean_anomaly_deg": 90.033,
      "mean_motion_rev_day": 14.9834784
    }
  ]
}